ATLAS CENTAUR 2         
1 00694U 63047A   26058.93146044  .00001383  00000+0  15760-3 0  9997
2 00694  30.3538 250.1785 0547938 354.2851   5.1688 14.12034230130243
THOR AGENA D R/B        
1 00733U 64002A   26058.96318865  .00000247  00000+0  10550-3 0  9998
2 00733  99.1228  71.7706 0031929 287.3371  72.4321 14.34013394236900
SL-3 R/B                
1 00877U 64053B   26058.90578730  .00000380  00000+0  97617-4 0  9994
2 00877  65.0786 359.9196 0079310 295.3321  63.9580 14.61357004265367
SL-8 R/B                
1 02802U 67045B   26058.95590975  .00000491  00000+0  14346-3 0  9998
2 02802  74.0132   6.2653 0063800  14.8747 345.4268 14.45611245 87618
SL-8 R/B                
1 03230U 68040B   26058.92646022  .00003289  00000+0  24478-3 0  9997
2 03230  74.0335 333.6411 0024351 160.7264 199.4852 15.03178751 88545
OAO 2                   
1 03597U 68110A   26058.15897844  .00000263  00000+0  76087-4 0  9999
2 03597  34.9942 324.0193 0004923 117.4527 242.6665 14.47300199 17573
ISIS 1                  
1 03669U 69009A   26058.80704481  .00000158  00000+0  95830-4 0  9993
2 03669  88.4552 156.3857 1707839 109.0997 270.2256 11.30410440347414
SERT 2                  
1 04327U 70009A   26058.82987912  .00000004  00000+0  61954-4 0  9991
2 04327  99.2745   2.4637 0004661 180.4455 234.2011 13.58728902778550
SL-3 R/B                
1 05118U 71028B   26058.97466684  .00037970  00000+0  46244-3 0  9992
2 05118  81.2333  64.0218 0014757 326.5542  33.4777 15.60201094987158
ASTEX 1                 
1 05560U 71089A   26058.82108043  .00000555  00000+0  14110-3 0  9992
2 05560  92.7134 148.5680 0017741 114.9651 245.3400 14.50757006860875
SL-8 R/B                
1 05730U 71119B   26058.77620888  .00016378  00000+0  84966-3 0  9991
2 05730  73.8862 194.2431 0550732 162.9366 199.1166 14.37531498654069
OAO 3 (COPERNICUS)      
1 06153U 72065A   26058.56638705  .00000402  00000+0  86929-4 0  9999
2 06153  35.0070 354.9908 0005908  77.2416  89.1505 14.59987830844715
