CCSDS_OMM_VERS = 2.0
CREATION_DATE  = 
ORIGINATOR     = 

OBJECT_NAME    = ATLAS CENTAUR 2
OBJECT_ID      = 1963-047A
CENTER_NAME    = EARTH
REF_FRAME      = TEME
TIME_SYSTEM    = UTC
MEAN_ELEMENT_THEORY = SGP/SGP4

EPOCH          = 2026-02-27T22:21:18.182016
MEAN_MOTION    = 14.12034230
ECCENTRICITY   = .05479389
INCLINATION    = 30.3538
RA_OF_ASC_NODE = 250.1785
ARG_OF_PERICENTER = 354.2851
MEAN_ANOMALY   = 5.1688

EPHEMERIS_TYPE = 0
CLASSIFICATION_TYPE = U
NORAD_CAT_ID   = 694
ELEMENT_SET_NO = 999
REV_AT_EPOCH   = 13024
BSTAR          = .15760496E-3
MEAN_MOTION_DOT = .1383E-4
MEAN_MOTION_DDOT = 0

CCSDS_OMM_VERS = 2.0
CREATION_DATE  = 
ORIGINATOR     = 

OBJECT_NAME    = THOR AGENA D R/B
OBJECT_ID      = 1964-002A
CENTER_NAME    = EARTH
REF_FRAME      = TEME
TIME_SYSTEM    = UTC
MEAN_ELEMENT_THEORY = SGP/SGP4

EPOCH          = 2026-02-27T23:06:59.499360
MEAN_MOTION    = 14.34013394
ECCENTRICITY   = .0031929
INCLINATION    = 99.1228
RA_OF_ASC_NODE = 71.7706
ARG_OF_PERICENTER = 287.3371
MEAN_ANOMALY   = 72.4321

EPHEMERIS_TYPE = 0
CLASSIFICATION_TYPE = U
NORAD_CAT_ID   = 733
ELEMENT_SET_NO = 999
REV_AT_EPOCH   = 23690
BSTAR          = .10550357E-3
MEAN_MOTION_DOT = .247E-5
MEAN_MOTION_DDOT = 0

CCSDS_OMM_VERS = 2.0
CREATION_DATE  = 
ORIGINATOR     = 

OBJECT_NAME    = SL-3 R/B
OBJECT_ID      = 1964-053B
CENTER_NAME    = EARTH
REF_FRAME      = TEME
TIME_SYSTEM    = UTC
MEAN_ELEMENT_THEORY = SGP/SGP4

EPOCH          = 2026-02-27T21:44:20.022720
MEAN_MOTION    = 14.61357004
ECCENTRICITY   = .00793102
INCLINATION    = 65.0786
RA_OF_ASC_NODE = 359.9196
ARG_OF_PERICENTER = 295.3321
MEAN_ANOMALY   = 63.9580

EPHEMERIS_TYPE = 0
CLASSIFICATION_TYPE = U
NORAD_CAT_ID   = 877
ELEMENT_SET_NO = 999
REV_AT_EPOCH   = 26536
BSTAR          = .97617151E-4
MEAN_MOTION_DOT = .38E-5
MEAN_MOTION_DDOT = 0

CCSDS_OMM_VERS = 2.0
CREATION_DATE  = 
ORIGINATOR     = 

OBJECT_NAME    = SL-8 R/B
OBJECT_ID      = 1967-045B
CENTER_NAME    = EARTH
REF_FRAME      = TEME
TIME_SYSTEM    = UTC
MEAN_ELEMENT_THEORY = SGP/SGP4

EPOCH          = 2026-02-27T22:56:30.602400
MEAN_MOTION    = 14.45611245
ECCENTRICITY   = .00638
INCLINATION    = 74.0132
RA_OF_ASC_NODE = 6.2653
ARG_OF_PERICENTER = 14.8747
MEAN_ANOMALY   = 345.4268

EPHEMERIS_TYPE = 0
CLASSIFICATION_TYPE = U
NORAD_CAT_ID   = 2802
ELEMENT_SET_NO = 999
REV_AT_EPOCH   = 8761
BSTAR          = .14346111E-3
MEAN_MOTION_DOT = .491E-5
MEAN_MOTION_DDOT = 0

CCSDS_OMM_VERS = 2.0
CREATION_DATE  = 
ORIGINATOR     = 

OBJECT_NAME    = SL-8 R/B
OBJECT_ID      = 1968-040B
CENTER_NAME    = EARTH
REF_FRAME      = TEME
TIME_SYSTEM    = UTC
MEAN_ELEMENT_THEORY = SGP/SGP4

EPOCH          = 2026-02-27T22:14:06.163008
MEAN_MOTION    = 15.03178751
ECCENTRICITY   = .00243519
INCLINATION    = 74.0335
RA_OF_ASC_NODE = 333.6411
ARG_OF_PERICENTER = 160.7264
MEAN_ANOMALY   = 199.4852

EPHEMERIS_TYPE = 0
CLASSIFICATION_TYPE = U
NORAD_CAT_ID   = 3230
ELEMENT_SET_NO = 999
REV_AT_EPOCH   = 8854
BSTAR          = .2447831E-3
MEAN_MOTION_DOT = .3289E-4
MEAN_MOTION_DDOT = 0

CCSDS_OMM_VERS = 2.0
CREATION_DATE  = 
ORIGINATOR     = 

OBJECT_NAME    = OAO 2
OBJECT_ID      = 1968-110A
CENTER_NAME    = EARTH
REF_FRAME      = TEME
TIME_SYSTEM    = UTC
MEAN_ELEMENT_THEORY = SGP/SGP4

EPOCH          = 2026-02-27T03:48:55.737216
MEAN_MOTION    = 14.47300199
ECCENTRICITY   = .00049239
INCLINATION    = 34.9942
RA_OF_ASC_NODE = 324.0193
ARG_OF_PERICENTER = 117.4527
MEAN_ANOMALY   = 242.6665

EPHEMERIS_TYPE = 0
CLASSIFICATION_TYPE = U
NORAD_CAT_ID   = 3597
ELEMENT_SET_NO = 999
REV_AT_EPOCH   = 1757
BSTAR          = .76086846E-4
MEAN_MOTION_DOT = .263E-5
MEAN_MOTION_DDOT = 0

CCSDS_OMM_VERS = 2.0
CREATION_DATE  = 
ORIGINATOR     = 

OBJECT_NAME    = ISIS 1
OBJECT_ID      = 1969-009A
CENTER_NAME    = EARTH
REF_FRAME      = TEME
TIME_SYSTEM    = UTC
MEAN_ELEMENT_THEORY = SGP/SGP4

EPOCH          = 2026-02-27T19:22:08.671584
MEAN_MOTION    = 11.30410440
ECCENTRICITY   = .1707839
INCLINATION    = 88.4552
RA_OF_ASC_NODE = 156.3857
ARG_OF_PERICENTER = 109.0997
MEAN_ANOMALY   = 270.2256

EPHEMERIS_TYPE = 0
CLASSIFICATION_TYPE = U
NORAD_CAT_ID   = 3669
ELEMENT_SET_NO = 999
REV_AT_EPOCH   = 34741
BSTAR          = .95829658E-4
MEAN_MOTION_DOT = .158E-5
MEAN_MOTION_DDOT = 0

CCSDS_OMM_VERS = 2.0
CREATION_DATE  = 
ORIGINATOR     = 

OBJECT_NAME    = SERT 2
OBJECT_ID      = 1970-009A
CENTER_NAME    = EARTH
REF_FRAME      = TEME
TIME_SYSTEM    = UTC
MEAN_ELEMENT_THEORY = SGP/SGP4

EPOCH          = 2026-02-27T19:55:01.555968
MEAN_MOTION    = 13.58728902
ECCENTRICITY   = .00046616
INCLINATION    = 99.2745
RA_OF_ASC_NODE = 2.4637
ARG_OF_PERICENTER = 180.4455
MEAN_ANOMALY   = 234.2011

EPHEMERIS_TYPE = 0
CLASSIFICATION_TYPE = U
NORAD_CAT_ID   = 4327
ELEMENT_SET_NO = 999
REV_AT_EPOCH   = 77855
BSTAR          = .6195447E-4
MEAN_MOTION_DOT = .4E-7
MEAN_MOTION_DDOT = 0

CCSDS_OMM_VERS = 2.0
CREATION_DATE  = 
ORIGINATOR     = 

OBJECT_NAME    = SL-3 R/B
OBJECT_ID      = 1971-028B
CENTER_NAME    = EARTH
REF_FRAME      = TEME
TIME_SYSTEM    = UTC
MEAN_ELEMENT_THEORY = SGP/SGP4

EPOCH          = 2026-02-27T23:23:31.214976
MEAN_MOTION    = 15.60201094
ECCENTRICITY   = .00147572
INCLINATION    = 81.2333
RA_OF_ASC_NODE = 64.0218
ARG_OF_PERICENTER = 326.5542
MEAN_ANOMALY   = 33.4777

EPHEMERIS_TYPE = 0
CLASSIFICATION_TYPE = U
NORAD_CAT_ID   = 5118
ELEMENT_SET_NO = 999
REV_AT_EPOCH   = 98715
BSTAR          = .46243692E-3
MEAN_MOTION_DOT = .3797E-3
MEAN_MOTION_DDOT = 0

CCSDS_OMM_VERS = 2.0
CREATION_DATE  = 
ORIGINATOR     = 

OBJECT_NAME    = ASTEX 1
OBJECT_ID      = 1971-089A
CENTER_NAME    = EARTH
REF_FRAME      = TEME
TIME_SYSTEM    = UTC
MEAN_ELEMENT_THEORY = SGP/SGP4

EPOCH          = 2026-02-27T19:42:21.349152
MEAN_MOTION    = 14.50757006
ECCENTRICITY   = .00177419
INCLINATION    = 92.7134
RA_OF_ASC_NODE = 148.5680
ARG_OF_PERICENTER = 114.9651
MEAN_ANOMALY   = 245.3400

EPHEMERIS_TYPE = 0
CLASSIFICATION_TYPE = U
NORAD_CAT_ID   = 5560
ELEMENT_SET_NO = 999
REV_AT_EPOCH   = 86087
BSTAR          = .14110242E-3
MEAN_MOTION_DOT = .555E-5
MEAN_MOTION_DDOT = 0

CCSDS_OMM_VERS = 2.0
CREATION_DATE  = 
ORIGINATOR     = 

OBJECT_NAME    = SL-8 R/B
OBJECT_ID      = 1971-119B
CENTER_NAME    = EARTH
REF_FRAME      = TEME
TIME_SYSTEM    = UTC
MEAN_ELEMENT_THEORY = SGP/SGP4

EPOCH          = 2026-02-27T18:37:44.447232
MEAN_MOTION    = 14.37531498
ECCENTRICITY   = .05507324
INCLINATION    = 73.8862
RA_OF_ASC_NODE = 194.2431
ARG_OF_PERICENTER = 162.9366
MEAN_ANOMALY   = 199.1166

EPHEMERIS_TYPE = 0
CLASSIFICATION_TYPE = U
NORAD_CAT_ID   = 5730
ELEMENT_SET_NO = 999
REV_AT_EPOCH   = 65406
BSTAR          = .84965536E-3
MEAN_MOTION_DOT = .16378E-3
MEAN_MOTION_DDOT = 0

CCSDS_OMM_VERS = 2.0
CREATION_DATE  = 
ORIGINATOR     = 

OBJECT_NAME    = OAO 3 (COPERNICUS)
OBJECT_ID      = 1972-065A
CENTER_NAME    = EARTH
REF_FRAME      = TEME
TIME_SYSTEM    = UTC
MEAN_ELEMENT_THEORY = SGP/SGP4

EPOCH          = 2026-02-27T13:35:35.841120
MEAN_MOTION    = 14.59987830
ECCENTRICITY   = .00059084
INCLINATION    = 35.0070
RA_OF_ASC_NODE = 354.9908
ARG_OF_PERICENTER = 77.2416
MEAN_ANOMALY   = 89.1505

EPHEMERIS_TYPE = 0
CLASSIFICATION_TYPE = U
NORAD_CAT_ID   = 6153
ELEMENT_SET_NO = 999
REV_AT_EPOCH   = 84471
BSTAR          = .86928734E-4
MEAN_MOTION_DOT = .402E-5
MEAN_MOTION_DDOT = 0

